$$SOE
2460154.500000000, A.D. 2023-Jul-29 00:00:00.0000, 3.667816997177951E+08, 3.167820936710788E+08, 6.572314130125456E+07,
2460161.500000000, A.D. 2023-Aug-05 00:00:00.0000, 3.607473778859096E+08, 3.245812945621096E+08, 6.510166521052070E+07,
2460168.500000000, A.D. 2023-Aug-12 00:00:00.0000, 3.545642988109373E+08, 3.322463612321858E+08, 6.445311205233136E+07,
2460175.500000000, A.D. 2023-Aug-19 00:00:00.0000, 3.482354964905658E+08, 3.397745706629628E+08, 6.377784151888883E+07,
2460182.500000000, A.D. 2023-Aug-26 00:00:00.0000, 3.417640425779867E+08, 3.471632713977130E+08, 6.307622160518067E+07,
2460189.500000000, A.D. 2023-Sep-02 00:00:00.0000, 3.351530446829222E+08, 3.544098836075084E+08, 6.234862834158503E+07,
2460196.500000000, A.D. 2023-Sep-09 00:00:00.0000, 3.284056447167363E+08, 3.615118990067486E+08, 6.159544551889271E+07,
2460203.500000000, A.D. 2023-Sep-16 00:00:00.0000, 3.215250174507436E+08, 3.684668805624587E+08, 6.081706438601318E+07,
2460210.500000000, A.D. 2023-Sep-23 00:00:00.0000, 3.145143697052697E+08, 3.752724622865020E+08, 6.001388330605893E+07,
2460217.500000000, A.D. 2023-Sep-30 00:00:00.0000, 3.073769398310542E+08, 3.819263503025482E+08, 5.918630749938251E+07,
2460224.500000000, A.D. 2023-Oct-07 00:00:00.0000, 3.001159951284081E+08, 3.884263246448685E+08, 5.833474904483311E+07,
2460231.500000000, A.D. 2023-Oct-14 00:00:00.0000, 2.927348282428286E+08, 3.947702384778877E+08, 5.745962677338740E+07,
2460238.500000000, A.D. 2023-Oct-21 00:00:00.0000, 2.852367557666025E+08, 4.009560163415662E+08, 5.656136588937509E+07,
2460245.500000000, A.D. 2023-Oct-28 00:00:00.0000, 2.776251176214997E+08, 4.069816536832642E+08, 5.564039763455111E+07,
2460252.500000000, A.D. 2023-Nov-04 00:00:00.0000, 2.699032759709877E+08, 4.128452169072770E+08, 5.469715904695210E+07,
2460259.500000000, A.D. 2023-Nov-11 00:00:00.0000, 2.620746138390563E+08, 4.185448433448547E+08, 5.373209274985552E+07,
2460266.500000000, A.D. 2023-Nov-18 00:00:00.0000, 2.541425336555642E+08, 4.240787410829315E+08, 5.274564674605548E+07,
2460273.500000000, A.D. 2023-Nov-25 00:00:00.0000, 2.461104558014684E+08, 4.294451886759627E+08, 5.173827421298698E+07,
2460280.500000000, A.D. 2023-Dec-02 00:00:00.0000, 2.379818171822112E+08, 4.346425347309436E+08, 5.071043329530779E+07,
2460287.500000000, A.D. 2023-Dec-09 00:00:00.0000, 2.297600699066279E+08, 4.396691973078708E+08, 4.966258688295859E+07,
2460294.500000000, A.D. 2023-Dec-16 00:00:00.0000, 2.214486803581996E+08, 4.445236631497616E+08, 4.859520234931284E+07,
2460301.500000000, A.D. 2023-Dec-23 00:00:00.0000, 2.130511290068005E+08, 4.492044874316857E+08, 4.750875127360705E+07,
2460308.500000000, A.D. 2023-Dec-30 00:00:00.0000, 2.045709096208393E+08, 4.537102950791076E+08, 4.640370935604769E+07,
2460315.500000000, A.D. 2024-Jan-06 00:00:00.0000, 1.960115261058643E+08, 4.580397812947242E+08, 4.528055649483088E+07,
2460322.500000000, A.D. 2024-Jan-13 00:00:00.0000, 1.873764901409195E+08, 4.621917094895092E+08, 4.413977658647317E+07,
2460329.500000000, A.D. 2024-Jan-20 00:00:00.0000, 1.786693208372009E+08, 4.661649097053567E+08, 4.298185718921056E+07,
2460336.500000000, A.D. 2024-Jan-27 00:00:00.0000, 1.698935443904632E+08, 4.699582781818401E+08, 4.180728928831565E+07,
2460343.500000000, A.D. 2024-Feb-03 00:00:00.0000, 1.610526932979253E+08, 4.735707771188263E+08, 4.061656712466660E+07,
2460350.500000000, A.D. 2024-Feb-10 00:00:00.0000, 1.521503054162236E+08, 4.770014343447039E+08, 3.941018803701180E+07,
2460357.500000000, A.D. 2024-Feb-17 00:00:00.0000, 1.431899229984253E+08, 4.802493428990859E+08, 3.818865230557346E+07,
2460364.500000000, A.D. 2024-Feb-24 00:00:00.0000, 1.341750917453394E+08, 4.833136605456529E+08, 3.695246299464062E+07,
2460371.500000000, A.D. 2024-Mar-02 00:00:00.0000, 1.251093598997326E+08, 4.861936091834280E+08, 3.570212578858411E+07,
2460378.500000000, A.D. 2024-Mar-09 00:00:00.0000, 1.159962775214321E+08, 4.888884740944676E+08, 3.443814880324635E+07,
2460385.500000000, A.D. 2024-Mar-16 00:00:00.0000, 1.068393963377789E+08, 4.913976032263351E+08, 3.316104235245267E+07,
2460392.500000000, A.D. 2024-Mar-23 00:00:00.0000, 9.764227006547396E+07, 4.937204076198643E+08, 3.187131876965839E+07,
2460399.500000000, A.D. 2024-Mar-30 00:00:00.0000, 8.840845296279664E+07, 4.958563629555383E+08, 3.056949248782200E+07,
2460406.500000000, A.D. 2024-Apr-06 00:00:00.0000, 7.914149686662541E+07, 4.978050088496661E+08, 2.925608007861394E+07,
2460413.500000000, A.D. 2024-Apr-13 00:00:00.0000, 6.984495026343176E+07, 4.995659467386271E+08, 2.793159999374735E+07,
2460420.500000000, A.D. 2024-Apr-20 00:00:00.0000, 6.052235844223715E+07, 5.011388390299781E+08, 2.659657231444573E+07,
2460427.500000000, A.D. 2024-Apr-27 00:00:00.0000, 5.117726321227814E+07, 5.025234089590933E+08, 2.525151860213056E+07,
2460434.500000000, A.D. 2024-May-04 00:00:00.0000, 4.181320227229030E+07, 5.037194404481657E+08, 2.389696178472748E+07,
2460441.500000000, A.D. 2024-May-11 00:00:00.0000, 3.243370846878696E+07, 5.047267778665875E+08, 2.253342604842830E+07,
2460448.500000000, A.D. 2024-May-18 00:00:00.0000, 2.304230902452879E+07, 5.055453257153789E+08, 2.116143672920692E+07,
2460455.500000000, A.D. 2024-May-25 00:00:00.0000, 1.364252476127904E+07, 5.061750482296057E+08, 1.978152020130369E+07,
2460462.500000000, A.D. 2024-Jun-01 00:00:00.0000, 4.237869376246951E+06, 5.066159688422354E+08, 1.839420375256464E+07,
2460469.500000000, A.D. 2024-Jun-08 00:00:00.0000, -5.168150981768541E+06, 5.068681694870023E+08, 1.700001542222825E+07,
2460476.500000000, A.D. 2024-Jun-15 00:00:00.0000, -1.457203743743654E+07, 5.069317902856465E+08, 1.559948380912703E+07,
2460483.500000000, A.D. 2024-Jun-22 00:00:00.0000, -2.397029842062419E+07, 5.068070307948766E+08, 1.419313803857020E+07,
2460490.500000000, A.D. 2024-Jun-29 00:00:00.0000, -3.335945212652938E+07, 5.064941509908077E+08, 1.278150793373734E+07,
2460497.500000000, A.D. 2024-Jul-06 00:00:00.0000, -4.273602876151331E+07, 5.059934695175844E+08, 1.136512394734296E+07,
2460504.500000000, A.D. 2024-Jul-13 00:00:00.0000, -5.209657062838168E+07, 5.053053620261226E+08, 9.944516905911803E+06,
2460511.500000000, A.D. 2024-Jul-20 00:00:00.0000, -6.143763203745537E+07, 5.044302607543719E+08, 8.520217842685491E+06,
2460518.500000000, A.D. 2024-Jul-27 00:00:00.0000, -7.075577969951680E+07, 5.033686543906263E+08, 7.092757900798053E+06,
2460525.500000000, A.D. 2024-Aug-03 00:00:00.0000, -8.004759332797892E+07, 5.021210878454732E+08, 5.662668250832468E+06,
2460532.500000000, A.D. 2024-Aug-10 00:00:00.0000, -8.930966628480163E+07, 5.006881619283069E+08, 4.230480006877422E+06,
2460539.500000000, A.D. 2024-Aug-17 00:00:00.0000, -9.853860622321582E+07, 4.990705329503085E+08, 2.796724138154328E+06,
2460546.500000000, A.D. 2024-Aug-24 00:00:00.0000, -1.077310356999619E+08, 4.972689122316869E+08, 1.361931371457636E+06,
2460553.500000000, A.D. 2024-Aug-31 00:00:00.0000, -1.168835926421124E+08, 4.952840654516851E+08, -7.336793159317970E+04,
2460560.500000000, A.D. 2024-Sep-07 00:00:00.0000, -1.259929303038628E+08, 4.931168119677434E+08, -1.508643946041554E+06,
2460567.500000000, A.D. 2024-Sep-14 00:00:00.0000, -1.350557166291563E+08, 4.907680251001639E+08, -2.943367530613840E+06,
2460574.500000000, A.D. 2024-Sep-21 00:00:00.0000, -1.440686350495647E+08, 4.882386337959030E+08, -4.377010130904049E+06,
2460581.500000000, A.D. 2024-Sep-28 00:00:00.0000, -1.530283872044305E+08, 4.855296224431636E+08, -5.809043658071160E+06,
2460588.500000000, A.D. 2024-Oct-05 00:00:00.0000, -1.619316939146795E+08, 4.826420288365992E+08, -7.238940679523587E+06,
2460595.500000000, A.D. 2024-Oct-12 00:00:00.0000, -1.707752947729194E+08, 4.795769432742088E+08, -8.666174645186990E+06,
2460602.500000000, A.D. 2024-Oct-19 00:00:00.0000, -1.795559481011074E+08, 4.763355085162212E+08, -1.009022001118958E+07,
2460609.500000000, A.D. 2024-Oct-26 00:00:00.0000, -1.882704313082924E+08, 4.729189198043269E+08, -1.151055232360768E+07,
2460616.500000000, A.D. 2024-Nov-02 00:00:00.0000, -1.969155413916185E+08, 4.693284247925588E+08, -1.292664829805633E+07,
2460623.500000000, A.D. 2024-Nov-09 00:00:00.0000, -2.054880954845907E+08, 4.655653234104741E+08, -1.433798590234485E+07,
2460630.500000000, A.D. 2024-Nov-16 00:00:00.0000, -2.139849314272599E+08, 4.616309676589487E+08, -1.574404444459668E+07,
2460637.500000000, A.D. 2024-Nov-23 00:00:00.0000, -2.224029083119248E+08, 4.575267612887062E+08, -1.714430467524350E+07,
2460644.500000000, A.D. 2024-Nov-30 00:00:00.0000, -2.307389067966084E+08, 4.532541593188556E+08, -1.853824892548746E+07,
2460651.500000000, A.D. 2024-Dec-07 00:00:00.0000, -2.389898287676123E+08, 4.488146678159365E+08, -1.992536128631273E+07,
2460658.500000000, A.D. 2024-Dec-14 00:00:00.0000, -2.471525970408963E+08, 4.442098451578005E+08, -2.130512766492337E+07,
2460665.500000000, A.D. 2024-Dec-21 00:00:00.0000, -2.552241574213718E+08, 4.394413035425583E+08, -2.267703560750052E+07,
2460672.500000000, A.D. 2024-Dec-28 00:00:00.0000, -2.632014811467952E+08, 4.345107077744704E+08, -2.404057431151783E+07,
2460679.500000000, A.D. 2025-Jan-04 00:00:00.0000, -2.710815651197653E+08, 4.294197737011290E+08, -2.539523487129152E+07,
2460686.500000000, A.D. 2025-Jan-11 00:00:00.0000, -2.788614317507830E+08, 4.241702679623231E+08, -2.674051045413411E+07,
2460693.500000000, A.D. 2025-Jan-18 00:00:00.0000, -2.865381293294819E+08, 4.187640081324342E+08, -2.807589639813799E+07,
2460700.500000000, A.D. 2025-Jan-25 00:00:00.0000, -2.941087326802938E+08, 4.132028627812982E+08, -2.940089029253794E+07,
2460707.500000000, A.D. 2025-Feb-01 00:00:00.0000, -3.015703439130393E+08, 4.074887514225987E+08, -3.071499206029752E+07,
2460714.500000000, A.D. 2025-Feb-08 00:00:00.0000, -3.089200932100740E+08, 4.016236443686616E+08, -3.201770404648623E+07,
2460721.500000000, A.D. 2025-Feb-15 00:00:00.0000, -3.161551396210909E+08, 3.956095624706905E+08, -3.330853111653285E+07,
$$EOE